#dP2022  5 11 18  0  0.00000000      96 __u+U ITR00 EXT  IAC
## 2209 324000.00000000   900.00000000 59710 0.7500000000000
+  116   C06C07C08C09C10C11C12C13C14C16C19C20C21C22C23C24C25
+        C26C27C28C29C30C32C33C34C35C36C37C38C39C40C41C42C43
+        C44C45C46E02E03E04E05E07E08E09E10E11E12E13E14E15E18
+        E19E21E24E25E26E27E30E31E33E34E36G01G02G03G04G05G06
+        G07G08G09G10G11G12G13G14G15G16G17G18G19G20G21G22G23
+        G24G25G26G27G28G29G30G31G32J02J03R01R02R03R04R05R07
+        R08R09R11R12R13R14R15R17R18R19R20R21R22R24  0  0  0
++        11  8  9 10 10  9  9  8  8 10  8  9  9  8  7  9  8
++         9  7  9  9  8  8  7  8  6  9  8  9 11  8  9 10  8
++         9 10  8  7  8  8  7  8  7  7  8  8  8  8  8  7  9
++         9  8  8  8  7  7  8  9  7  8  7  7  8  8  7  7  8
++         8  8  8  7  8  7  6  7  7  8  7  8  7  7  7  8  7
++         7 10  8  8  8  7  7  8  9  9 10  8  9  9  9 10  9
++         8  8  9  9  7 10  7  9  9 10 10  9  9  7  0  0  0
%c M  cc GPS ccc cccc cccc cccc cccc ccccc ccccc ccccc ccccc
%c cc cc ccc ccc cccc cccc cccc cccc ccccc ccccc ccccc ccccc
%f  0.0000000  0.000000000  0.00000000000  0.000000000000000
%f  0.0000000  0.000000000  0.00000000000  0.000000000000000
%i    0    0    0    0      0      0      0      0         0
%i    0    0    0    0      0      0      0      0         0
/* IAC                                ULTRA-RAPID PREDICTION
/* S/V CLOCKS ARE ALIGNED TO GNSS TIME                      
/* G:C1WC2W R:C1PC2P E:C1XC5X C:C2IC6I J:C1CC2S             
/* PCV:IGS14_2196 OL/AL:FES2004  NONE     YN ORB:CoN CLK:CoN
*  2022 05 12 16 15  0.00000000
PC06  -1228.849865  34876.827871  23838.875334    -29.058445
PC07 -13949.969635  26076.339358 -30104.854546   -157.391635
PC08 -16976.518994  37697.821010   7910.600359    309.130879
PC09   4631.370056  38701.675583  17055.712598   -780.988899
PC10  -4982.529190  26879.605314 -31908.116243    132.598460
PC11 -16794.471348 -21361.874654  -6357.636219    347.936664
PC12  -5990.536405 -24933.363791  11049.044298   -617.181105
PC13 -10316.572848  37884.362682  15119.163815    -34.838470
PC14 -20136.880588 -10699.991211 -16102.332634    473.435243
PC16  -3312.214534  32979.305975  26389.089005    130.522792
PC19  26159.148879   5112.283910   8253.164232    870.594516
PC20  12487.017006  13961.493936  20693.591865   -912.171287
PC21   9583.914255 -14970.211972 -21482.914599   -278.132483
PC22  25240.090496  -7051.572602  -9535.770896   -970.921363
PC23 -19474.192263  14351.434602  13917.018432   -930.100965
PC24  -2251.359003 -21663.362225  17450.073851   -963.525993
PC25 -16134.623255  -3841.479055  22433.904833   -737.692117
PC26  10654.549308 -25572.374940   3499.854768    738.858912
PC27  -1510.713046  21628.352232 -17603.076928    722.106648
PC28 -14698.622343   6238.343885 -22888.590979     65.939437
PC29  20085.338653  12731.549984  14595.197484    553.713493
PC30  13218.355578  24436.372047  -2773.352015    498.385188
PC32  -9549.886210  15066.535921  21485.042229   -963.075367
PC33 -26195.775526  -4978.235562  -8259.870229   -965.793046
PC34 -13808.185989 -24170.386083   1747.147719   -405.126311
PC35  15123.161479  -5721.476220  22733.943903    270.793264
PC36  15789.639854   4744.914740 -22491.195127   -964.120064
PC37 -11991.541567  25072.404520  -2382.974547   -912.732251
PC38 -20487.729398  36767.138901    141.096289    231.642418
PC39  -6739.311601  28835.978669  30113.791808     34.979693
PC40 -19944.268934  19466.179454 -31718.925754    268.473123
PC41 -25452.418174   6930.654832   9170.299251   -965.851346
PC42 -11485.059823 -14256.975564 -21019.452636   -967.706895
PC43 -20070.877989 -13352.342023 -14049.661889   -924.529412
PC44   1002.267815 -21579.515887  17630.303068    657.341216
PC45  19371.711525 -14669.060527 -13737.934219    755.192464
PC46   3449.542605  20646.303878 -18435.041427   -320.797738
PE02  20477.222909 -19461.381394   8860.777227    298.715559
PE03  11239.578381 -13181.590078 -23995.626271   -557.525461
PE04   9279.020837  20496.191527  19245.871861  -1026.397805
PE05  25587.527579   2047.698118 -14727.467508   -182.288389
PE07 -24842.379260 -15834.962393  -2935.332690   -667.783897
PE08  -9715.009415 -20383.897443 -19137.992046   -527.882466
PE09  24931.042228  15683.268969   2860.683088   -515.829644
PE10   8638.785136  25649.316972  11977.727481   -512.546909
PE11  13392.517346  17475.856361  19781.319664   3691.310745
PE12   2665.353692  29368.067117   2706.673780   4617.306331
PE13 -13134.177107 -18072.082033 -19412.906395    428.633617
PE14  -1661.452094  21110.117569 -21110.114702  -1839.692484
PE15  -2643.074618 -29363.937651  -2567.307589    746.099765
PE18 -14357.429328 -21889.132938   9272.862461  -1457.226754
PE19 -13571.633471  11437.450236  23701.615034  -4547.357787
PE21 -26686.518088   9193.782393   8909.313838   -733.766783
PE24  16973.159275   8021.888150 -22905.047966   -611.067122
PE25  26675.844680  -8992.795240  -9153.660059   -573.679215
PE26 -15897.968041   4821.374237 -24499.949671  -1136.400618
PE27 -17910.919255  -6995.802919  22502.283043   -297.146578
PE30   2432.867315 -19287.729711  22314.416596   -504.683210
PE31  -1316.897686  18913.250821 -22725.372377   -496.510604
PE33  -9351.080367  23292.946314 -15701.602020   -456.705290
PE34   9202.821291 -23447.439014  15537.631710   -516.693266
PE36  15833.589676  -3720.497363  24728.427850   -372.643262
PG01  13047.542036 -14765.475388  17336.133659    364.537247
PG02 -13926.331529  -8396.358379 -20318.629667   -653.266251
PG03  22794.333377 -13091.704007  -3441.687117   -241.670914
PG04  15929.977534  -5838.725229 -20444.952496   -167.904638
PG05 -23906.804006   3272.294715 -11434.852633    -81.588859
PG06  -6303.259392 -22341.353914 -12770.300953    300.688476
PG07   5385.004282 -25341.329798  -4078.258814    321.999492
PG08  21786.247882   1901.910520  15277.946055    -67.745666
PG09   5764.839077 -14536.436679 -21529.161714   -337.273160
PG10   1859.530120  15394.418477  21673.679341   -411.849244
PG11 -13326.497909  -9455.914234 -20943.886271    -25.883363
PG12 -24802.177650   9308.736488     81.413944   -214.377034
PG13 -21981.781699 -11608.450199   9442.450662    310.327284
PG14      2.937676 -16192.230137  21035.850147   -107.942308
PG15 -21736.100626   1155.243470  15016.483872    -61.805463
PG16  22193.751141   2947.378261 -14909.015309   -500.238643
PG17 -10001.804809 -20333.937073  14240.930065    611.773393
PG18  -6339.478723  25218.800826  -5117.945551    171.994905
PG19 -16036.689329 -20140.689488   6695.399328    156.401876
PG20 -18125.664117  -4324.184580 -18835.259703    515.205367
PG21  15391.756756  -3458.101051  21941.848297    161.044042
PG22  17640.338079  19430.983280   5084.981848    257.988330
PG23  -9945.788626  17878.148496  16873.211897    -21.402183
PG24 -14289.277932  10846.961322  19157.787104    242.313681
PG25 -16316.595944  17099.281072 -12126.219682    323.799154
PG26  13867.126531   9750.462476 -20597.211683    205.132863
PG27  23223.253738  12312.510578   4868.215492    201.641881
PG28  -9039.400691 -12800.524678  21932.542306    359.105645
PG29  -7023.846660  13269.167766 -21958.292331   -512.888446
PG30   -736.608286 -25986.328730   4825.164270   -527.614712
PG31   8180.821074  20329.269019 -14801.640807   -177.322343
PG32  13274.793250  19696.786457  12221.502476   -125.507496
PJ02 -35186.176208  22371.695255  -1945.021705     -0.108487
PJ03 -19542.870437  24672.840549 -23479.689258     -2.106113
PR01 -15152.857329 -10688.285670 -17517.520639      8.643881
PR02 -25121.214713  -4228.691591    366.668834    518.153617
PR03 -18980.434442   4707.964709  16397.485133     56.527145
PR04  -2421.823179  10564.215179  23124.094747    141.173249
PR05  15487.591839  10853.592453  17144.645476     92.744958
PR07  18542.854178  -4944.745472 -16784.020918     34.988325
PR08   2279.742719 -10675.422640 -22991.948396    -65.081176
PR09  15478.850800  -3751.726533 -19882.569490     54.676044
PR11  10394.465969 -20872.808532  10334.494712     39.183170
PR12  -3800.015598 -12098.034511  22159.797629     18.411741
PR13 -14778.002522   2721.126967  20596.804131    -22.198875
PR14 -17794.647429  17194.125915   6244.382678     25.758274
PR15 -10072.279199  20668.332450 -11032.471513     96.175408
PR17  -7542.773794   9176.072924 -22566.588781    525.439168
PR18   1726.670629  21956.384590 -12909.611925    116.617032
PR19   8932.921197  23775.257506   2372.002261   -188.755329
PR20  12557.204378  10380.505249  19646.202002    -70.456261
PR21   6770.288988 -10617.070236  22181.251643   -300.682264
PR22  -2054.183374 -22241.552436  12203.909315   -182.711353
PR24 -13119.443388  -9224.993541 -19828.258052     93.403102
EOF
